NORAD_CAT_ID,OBJECT_NAME,OBJECT_TYPE,EPOCH,MEAN_MOTION,ECCENTRICITY,INCLINATION,RA_OF_ASC_NODE,ARG_OF_PERICENTER,MEAN_ANOMALY,BSTAR,MEAN_MOTION_DOT,MEAN_MOTION_DDOT,TLE_LINE0,TLE_LINE1,TLE_LINE2,SEMIMAJOR_AXIS,PERIOD,APOGEE,PERIGEE,DECAYED
52377.0,STARLINK-3805,PAYLOAD,2022-08-03 06:00:00,15.17155678,0.0001702,53.2175,329.9479,48.5395,104.6766,-0.057874,-0.01077122,0.0,0 STARLINK-3805,1 52377U 22045AY  22215.25001157 -.01077122  00000-0 -57874-1 0  9994,2 52377  53.2175 329.9479 0001702  48.5395 104.6766 15.17155678 17471,6892.579000000002,94.914,515.617,513.271,0.0
52377.0,STARLINK-3805,PAYLOAD,2022-08-03 14:00:01,15.16394857,0.0001889999999999,53.2175,328.4368,43.3294,131.0086,-0.058995,-0.01074466,0.0,0 STARLINK-3805,1 52377U 22045AY  22215.58334491 -.01074466  00000-0 -58995-1 0  9993,2 52377  53.2175 328.4368 0001890  43.3294 131.0086 15.16394857  1308,6894.884,94.962,518.052,515.446,0.0
52377.0,STARLINK-3805,PAYLOAD,2022-08-03 22:00:01,15.15636263,0.0001608,53.2173,326.9252,55.6073,139.0038,-0.060363,-0.01075617,0.0,0 STARLINK-3805,1 52377U 22045AY  22215.91668981 -.01075617  00000-0 -60363-1 0  9995,2 52377  53.2173 326.9252 0001608  55.6073 139.0038 15.15636263  1303,6897.185,95.01,520.159,517.941,0.0
52377.0,STARLINK-3805,PAYLOAD,2022-08-04 06:00:00,15.14876871,0.0001733,53.2174,325.4147,48.1498,165.6959,-0.061725,-0.01076297,0.0,0 STARLINK-3805,1 52377U 22045AY  22216.25001157 -.01076297  00000-0 -61725-1 0  9997,2 52377  53.2174 325.4147 0001733  48.1498 165.6959 15.14876871 17627,6899.489000000001,95.057,522.55,520.159,0.0
52377.0,STARLINK-3805,PAYLOAD,2022-08-04 14:00:01,15.14115718,0.000176,53.2175,323.909,48.5127,183.717,-0.062873,-0.01073128,0.0,0 STARLINK-3805,1 52377U 22045AY  22216.58334491 -.01073128  00000-0 -62873-1 0  9998,2 52377  53.2175 323.9090 0001760  48.5127 183.7170 15.14115718  1301,6901.801,95.105,524.881,522.452,0.0
52377.0,STARLINK-3805,PAYLOAD,2022-08-04 22:00:00,15.13358358,0.0001537,53.2174,322.4026,57.1777,192.5236,-0.064471,-0.01076764,0.0,0 STARLINK-3805,1 52377U 22045AY  22216.91667824 -.01076764  00000-0 -64471-1 0  9999,2 52377  53.2174 322.4026 0001537  57.1777 192.5236 15.13358358  1301,6904.104,95.153,527.03,524.908,0.0
52377.0,STARLINK-3805,PAYLOAD,2022-08-05 06:00:02,15.12597061,0.0001492,53.2175,320.8974,59.6096,206.715,-0.06567,-0.01073756,0.0,0 STARLINK-3805,1 52377U 22045AY  22217.25002315 -.01073756  00000-0 -65670-1 0  9995,2 52377  53.2175 320.8974 0001492  59.6096 206.7150 15.12597061 17784,6906.42,95.201,529.316,527.255,0.0
52377.0,STARLINK-3805,PAYLOAD,2022-08-05 14:00:01,15.11837448,0.0001695,53.2175,319.397,46.9962,234.9739,-0.067049,-0.01073273,0.0,0 STARLINK-3805,1 52377U 22045AY  22217.58335648 -.01073273  00000-0 -67049-1 0  9995,2 52377  53.2175 319.3970 0001695  46.9962 234.9739 15.11837448  1301,6908.734,95.248,531.77,529.428,0.0
52377.0,STARLINK-3805,PAYLOAD,2022-08-05 22:00:00,15.11080055,0.0001445,53.2174,317.8959,57.0897,239.5511,-0.068758,-0.01077238,0.0,0 STARLINK-3805,1 52377U 22045AY  22217.91667824 -.01077238  00000-0 -68758-1 0  9999,2 52377  53.2174 317.8959 0001445  57.0897 239.5511 15.11080055  1306,6911.042,95.296,533.906,531.908,0.0
52377.0,STARLINK-3805,PAYLOAD,2022-08-06 06:00:00,15.10319114,0.0001365,53.2175,316.3959,58.2793,252.1839,-0.070082,-0.01075141,0.0,0 STARLINK-3805,1 52377U 22045AY  22218.25001157 -.01075141  00000-0 -70082-1 0  9992,2 52377  53.2175 316.3959 0001365  58.2793 252.1839 15.10319114 17930,6913.363,95.344,536.172,534.284,0.0
52377.0,STARLINK-3805,PAYLOAD,2022-08-06 14:00:01,15.09435122,0.0001528,53.2175,314.9001,46.3636,277.0262,-0.043001,-0.00651955,0.0,0 STARLINK-3805,1 52377U 22045AY  22218.58334491 -.00651955  00000-0 -43001-1 0  9991,2 52377  53.2175 314.9001 0001528  46.3636 277.0262 15.09435122 17984,6916.062,95.4,538.984,536.87,0.0
52377.0,STARLINK-3805,PAYLOAD,2022-08-06 20:31:56,15.11096333,0.0003398999999999,53.2134,313.6641,64.7917,295.3428,-0.0179819999999999,-0.00292779,0.0,0 STARLINK-3805,1 52377U 22045AY  22218.85552063 -.00292779  00000-0 -17982-1 0  9992,2 52377  53.2134 313.6641 0003399  64.7917 295.3428 15.11096333 18022,6910.9919999999975,95.295,535.206,530.508,0.0
52377.0,STARLINK-3805,PAYLOAD,2022-08-07 06:00:00,15.08834116,0.0001889,53.2145,311.8973,60.5551,286.4909,0.0006072,9.387e-05,0.0,0 STARLINK-3805,1 52377U 22045AY  22219.25001157  .00009387  00000-0  60720-3 0  9999,2 52377  53.2145 311.8973 0001889  60.5551 286.4909 15.08834116 18077,6917.898,95.438,541.07,538.457,0.0
52377.0,STARLINK-3805,PAYLOAD,2022-08-07 12:25:26,15.09907514,0.0002747,53.2151,310.694,54.5827,305.5422,-0.011581,-0.00185273,0.0,0 STARLINK-3805,1 52377U 22045AY  22219.51766665 -.00185273  00000-0 -11581-1 0  9990,2 52377  53.2151 310.6940 0002747  54.5827 305.5422 15.09907514 18121,6914.619000000002,95.37,538.384,534.585,0.0
52377.0,STARLINK-3805,PAYLOAD,2022-08-07 22:00:00,15.08881485,0.0001940999999999,53.2149,308.9032,52.6825,317.5727,-0.0038288,-0.0006077999999999,0.0,0 STARLINK-3805,1 52377U 22045AY  22219.91667824 -.00060780  00000-0 -38288-2 0  9990,2 52377  53.2149 308.9032 0001941  52.6825 317.5727 15.08881485 18186,6917.754,95.435,540.961,538.276,0.0
52377.0,STARLINK-3805,PAYLOAD,2022-08-08 04:18:50,15.09607709,0.0001195,53.216,307.7202,67.645,292.4669,-0.0092732999999999,-0.00147937,0.0,0 STARLINK-3805,1 52377U 22045AY  22220.17974821 -.00147937  00000-0 -92733-2 0  9993,2 52377  53.2160 307.7202 0001195  67.6450 292.4669 15.09607709 18223,6915.535,95.389,538.226,536.573,0.0
52377.0,STARLINK-3805,PAYLOAD,2022-08-08 14:00:01,15.08842014,0.0002002,53.2153,305.9112,50.1546,343.4001,0.001143,0.00017951,0.0,0 STARLINK-3805,1 52377U 22045AY  22220.58335648  .00017951  00000-0  11430-2 0  9991,2 52377  53.2153 305.9112 0002002  50.1546 343.4001 15.08842014 18288,6917.874,95.437,541.124,538.354,0.0
52377.0,STARLINK-3805,PAYLOAD,2022-08-08 22:00:00,15.08877722,0.0001844999999999,53.2154,304.4137,49.1119,355.9859,-0.0037696999999999,-0.00059847,0.0,0 STARLINK-3805,1 52377U 22045AY  22220.91667824 -.00059847  00000-0 -37697-2 0  9997,2 52377  53.2154 304.4137 0001845  49.1119 355.9859 15.08877722  1306,6917.765,95.435,540.906,538.354,0.0
52377.0,STARLINK-3805,PAYLOAD,2022-08-09 06:00:00,15.08845008,0.0001706,53.2157,302.9167,51.7644,4.9424,-0.0011279,-0.00018196,0.0,0 STARLINK-3805,1 52377U 22045AY  22221.25001157 -.00018196  00000-0 -11279-2 0  9996,2 52377  53.2157 302.9167 0001706  51.7644   4.9424 15.08845008 18380,6917.865,95.437,540.91,538.55,0.0
52377.0,STARLINK-3805,PAYLOAD,2022-08-09 14:00:01,15.0883573,0.0001831,53.2167,301.4276,47.1558,21.1094,-0.0067928,-0.00106786,0.0,0 STARLINK-3805,1 52377U 22045AY  22221.58334491 -.00106786  00000-0 -67928-2 0  9997,2 52377  53.2167 301.4276 0001831  47.1558  21.1094 15.08835730  1307,6917.893,95.438,541.025,538.492,0.0
52377.0,STARLINK-3805,PAYLOAD,2022-08-09 22:00:00,15.08842163,0.0001745,53.2157,299.9246,46.3945,33.448,-0.0011363,-0.00018328,0.0,0 STARLINK-3805,1 52377U 22045AY  22221.91667824 -.00018328  00000-0 -11363-2 0  9999,2 52377  53.2157 299.9246 0001745  46.3945  33.4480 15.08842163  1302,6917.874,95.437,540.946,538.5319999999998,0.0
52377.0,STARLINK-3805,PAYLOAD,2022-08-10 14:00:01,15.08843361,0.0001827,53.2157,296.9332,43.4737,59.5571,-0.0009349,-0.00015138,0.0,0 STARLINK-3805,1 52377U 22045AY  22222.58334491 -.00015138  00000-0 -93490-3 0  9992,2 52377  53.2157 296.9332 0001827  43.4737  59.5571 15.08843361  1304,6917.87,95.437,540.999,538.471,0.0
52377.0,STARLINK-3805,PAYLOAD,2022-08-10 17:07:18,15.08833904,0.000179,53.2153,296.3492,40.7574,49.1742,-0.00028399,-4.804e-05,0.0,0 STARLINK-3805,1 52377U 22045AY  22222.71341435 -.00004804  00000-0 -28399-3 0  9997,2 52377  53.2153 296.3492 0001790  40.7574  49.1742 15.08833904 18607,6917.899,95.438,541.002,538.526,0.0
52377.0,STARLINK-3805,PAYLOAD,2022-08-10 22:00:00,15.08831856,0.0001635,53.2155,295.4356,44.1161,70.5078,-0.0010375,-0.00016758,0.0,0 STARLINK-3805,1 52377U 22045AY  22222.91667824 -.00016758  00000-0 -10375-2 0  9997,2 52377  53.2155 295.4356 0001635  44.1161  70.5078 15.08831856  1309,6917.905,95.438,540.901,538.639,0.0
52377.0,STARLINK-3805,PAYLOAD,2022-08-11 14:00:01,15.08817123,0.0001774999999999,53.2152,292.4443,41.9472,95.8446,0.0020567,0.00032576,0.0,0 STARLINK-3805,1 52377U 22045AY  22223.58334491  .00032576  00000-0  20567-2 0  9990,2 52377  53.2152 292.4443 0001775  41.9472  95.8446 15.08817123  1305,6917.95,95.439,541.043,538.587,0.0
52377.0,STARLINK-3805,PAYLOAD,2022-08-11 22:00:00,15.08856443,0.0001663,53.2156,290.9465,46.236,103.1381,-0.0038111999999999,-0.00060462,0.0,0 STARLINK-3805,1 52377U 22045AY  22223.91667824 -.00060462  00000-0 -38112-2 0  9998,2 52377  53.2156 290.9465 0001663  46.2360 103.1381 15.08856443 18785,6917.83,95.437,540.846,538.545,0.0
52377.0,STARLINK-3805,PAYLOAD,2022-08-12 06:00:00,15.08896344,0.0001626999999999,53.2172,289.4542,48.3463,112.6152,-0.010683,-0.00166659,0.0,0 STARLINK-3805,1 52377U 22045AY  22224.25001157 -.00166659  00000-0 -10683-1 0  9994,2 52377  53.2172 289.4542 0001627  48.3463 112.6152 15.08896344 18830,6917.708000000001,95.434,540.6990000000002,538.448,0.0
52377.0,STARLINK-3805,PAYLOAD,2022-08-12 14:00:01,15.08806414,0.0001865,53.2163,287.9553,44.7443,127.8314,0.0027046,0.00042979,0.0,0 STARLINK-3805,1 52377U 22045AY  22224.58334491  .00042979  00000-0  27046-2 0  9998,2 52377  53.2163 287.9553 0001865  44.7443 127.8314 15.08806414 18889,6917.983,95.44,541.138,538.558,0.0
52377.0,STARLINK-3805,PAYLOAD,2022-08-12 22:00:01,15.08831203,0.0001708,53.2158,286.4574,48.685,135.5259,-0.00020029,-3.474e-05,0.0,0 STARLINK-3805,1 52377U 22045AY  22224.91668981 -.00003474  00000-0 -20029-3 0  9993,2 52377  53.2158 286.4574 0001708  48.6850 135.5259 15.08831203  1308,6917.906999999997,95.438,540.9540000000002,538.591,0.0
